start=new Date('2022-10-10T00:00:00.000Z').valueOf();
sats=[{"TLE_LINE1":"1 45769U 20038AR  22282.75075266  .00000010  00000-0  19585-4 0  9991","SEMIMAJOR_AXIS":"6925.345","OBJECT_NAME":"STARLINK-1459","ARG_OF_PERICENTER":"84.7328","COUNTRY_CODE":"US","OBJECT_ID":"2020-038AR","DECAY_DATE":null,"REV_AT_EPOCH":"12825","OBJECT_TYPE":"PAYLOAD","INCLINATION":"53.0538","RCS_SIZE":"LARGE","REF_FRAME":"TEME","BSTAR":"0.00001958500000","EPHEMERIS_TYPE":"0","PERIOD":"95.592","SITE":"AFETR","EPOCH":"2022-10-09T18:01:05.029824","LAUNCH_DATE":"2020-06-13","MEAN_MOTION_DOT":"0.00000010","TLE_LINE2":"2 45769  53.0538  74.3514 0001417  84.7328 275.3823 15.06401067128254","FILE":"3598879","NORAD_CAT_ID":"45769","ECCENTRICITY":"0.00014170","TIME_SYSTEM":"UTC","ELEMENT_SET_NO":"999","CLASSIFICATION_TYPE":"U","MEAN_ELEMENT_THEORY":"SGP4","MEAN_ANOMALY":"275.3823","GP_ID":"214599543","MEAN_MOTION":"15.06401067","APOAPSIS":"548.192","MEAN_MOTION_DDOT":"0.0000000000000","CENTER_NAME":"EARTH","RA_OF_ASC_NODE":"74.3514","PERIAPSIS":"546.229"},{"BSTAR":"0.00010814000000","EPHEMERIS_TYPE":"0","REF_FRAME":"TEME","RCS_SIZE":"LARGE","OBJECT_TYPE":"PAYLOAD","INCLINATION":"53.0559","SITE":"AFETR","PERIOD":"95.592","SEMIMAJOR_AXIS":"6925.358","TLE_LINE1":"1 45770U 20038AS  22282.62080714  .00001329  00000-0  10814-3 0  9992","ARG_OF_PERICENTER":"61.1399","OBJECT_NAME":"STARLINK-1462","REV_AT_EPOCH":"12878","DECAY_DATE":null,"OBJECT_ID":"2020-038AS","COUNTRY_CODE":"US","MEAN_MOTION_DDOT":"0.0000000000000","CENTER_NAME":"EARTH","APOAPSIS":"548.248","GP_ID":"214600287","MEAN_MOTION":"15.06396896","PERIAPSIS":"546.198","RA_OF_ASC_NODE":"34.9396","NORAD_CAT_ID":"45770","FILE":"3598879","ECCENTRICITY":"0.00014800","TIME_SYSTEM":"UTC","LAUNCH_DATE":"2020-06-13","MEAN_MOTION_DOT":"0.00001329","TLE_LINE2":"2 45770  53.0559  34.9396 0001480  61.1399 298.9738 15.06396896128783","EPOCH":"2022-10-09T14:53:57.736896","MEAN_ELEMENT_THEORY":"SGP4","MEAN_ANOMALY":"298.9738","ELEMENT_SET_NO":"999","CLASSIFICATION_TYPE":"U"},{"EPOCH":"2022-10-09T14:44:42.126144","FILE":"3598879","TIME_SYSTEM":"UTC","NORAD_CAT_ID":"45771","ECCENTRICITY":"0.00013720","LAUNCH_DATE":"2020-06-13","MEAN_MOTION_DOT":"0.00003741","TLE_LINE2":"2 45771  53.0545  34.9656 0001372  80.7455 279.3689 15.06404467128780","ELEMENT_SET_NO":"999","CLASSIFICATION_TYPE":"U","MEAN_ELEMENT_THEORY":"SGP4","MEAN_ANOMALY":"279.3689","GP_ID":"214601036","MEAN_MOTION":"15.06404467","MEAN_MOTION_DDOT":"0.0000000000000","CENTER_NAME":"EARTH","APOAPSIS":"548.150","RA_OF_ASC_NODE":"34.9656","PERIAPSIS":"546.250","SEMIMAJOR_AXIS":"6925.335","TLE_LINE1":"1 45771U 20038AT  22282.61437646  .00003741  00000-0  26984-3 0  9997","ARG_OF_PERICENTER":"80.7455","OBJECT_NAME":"STARLINK-1463","OBJECT_ID":"2020-038AT","COUNTRY_CODE":"US","REV_AT_EPOCH":"12878","DECAY_DATE":null,"RCS_SIZE":"LARGE","OBJECT_TYPE":"PAYLOAD","INCLINATION":"53.0545","BSTAR":"0.00026984000000","EPHEMERIS_TYPE":"0","REF_FRAME":"TEME","PERIOD":"95.592","SITE":"AFETR"},{"SITE":"AFETR","PERIOD":"95.592","BSTAR":"0.00004765900000","EPHEMERIS_TYPE":"0","REF_FRAME":"TEME","RCS_SIZE":"LARGE","OBJECT_TYPE":"PAYLOAD","INCLINATION":"53.0578","REV_AT_EPOCH":"12880","DECAY_DATE":null,"OBJECT_ID":"2020-038AU","COUNTRY_CODE":"US","SEMIMAJOR_AXIS":"6925.365","TLE_LINE1":"1 45772U 20038AU  22282.66966536  .00000428  00000-0  47659-4 0  9990","OBJECT_NAME":"STARLINK-1470","ARG_OF_PERICENTER":"72.3790","PERIAPSIS":"546.238","RA_OF_ASC_NODE":"34.7099","MEAN_MOTION_DDOT":"0.0000000000000","CENTER_NAME":"EARTH","APOAPSIS":"548.223","GP_ID":"214601290","MEAN_MOTION":"15.06394568","MEAN_ELEMENT_THEORY":"SGP4","MEAN_ANOMALY":"287.7355","ELEMENT_SET_NO":"999","CLASSIFICATION_TYPE":"U","ECCENTRICITY":"0.00014330","FILE":"3598879","NORAD_CAT_ID":"45772","TIME_SYSTEM":"UTC","LAUNCH_DATE":"2020-06-13","MEAN_MOTION_DOT":"0.00000428","TLE_LINE2":"2 45772  53.0578  34.7099 0001433  72.3790 287.7355 15.06394568128809","EPOCH":"2022-10-09T16:04:19.087104"},{"CENTER_NAME":"EARTH","MEAN_MOTION_DDOT":"0.0000000000000","APOAPSIS":"548.267","MEAN_MOTION":"15.06404920","GP_ID":"214600041","PERIAPSIS":"546.130","RA_OF_ASC_NODE":"35.0461","FILE":"3598879","NORAD_CAT_ID":"45773","TIME_SYSTEM":"UTC","ECCENTRICITY":"0.00015430","TLE_LINE2":"2 45773  53.0545  35.0461 0001543  66.3247 293.7904 15.06404920128792","MEAN_MOTION_DOT":"0.00000063","LAUNCH_DATE":"2020-06-13","EPOCH":"2022-10-09T14:18:09.433728","MEAN_ANOMALY":"293.7904","MEAN_ELEMENT_THEORY":"SGP4","CLASSIFICATION_TYPE":"U","ELEMENT_SET_NO":"999","EPHEMERIS_TYPE":"0","BSTAR":"0.00002313400000","REF_FRAME":"TEME","RCS_SIZE":"LARGE","INCLINATION":"53.0545","OBJECT_TYPE":"PAYLOAD","SITE":"AFETR","PERIOD":"95.592","TLE_LINE1":"1 45773U 20038AV  22282.59594252  .00000063  00000-0  23134-4 0  9992","ARG_OF_PERICENTER":"66.3247","SEMIMAJOR_AXIS":"6925.333","OBJECT_NAME":"STARLINK-1482","REV_AT_EPOCH":"12879","DECAY_DATE":null,"OBJECT_ID":"2020-038AV","COUNTRY_CODE":"US"},{"RA_OF_ASC_NODE":"34.8838","PERIAPSIS":"546.220","GP_ID":"214599789","MEAN_MOTION":"15.06389702","APOAPSIS":"548.270","MEAN_MOTION_DDOT":"0.0000000000000","CENTER_NAME":"EARTH","ELEMENT_SET_NO":"999","CLASSIFICATION_TYPE":"U","MEAN_ELEMENT_THEORY":"SGP4","MEAN_ANOMALY":"294.8213","EPOCH":"2022-10-09T15:11:15.246240","LAUNCH_DATE":"2020-06-13","MEAN_MOTION_DOT":"-0.00000796","TLE_LINE2":"2 45774  53.0550  34.8838 0001480  65.2930 294.8213 15.06389702128796","FILE":"3598879","NORAD_CAT_ID":"45774","TIME_SYSTEM":"UTC","ECCENTRICITY":"0.00014800","PERIOD":"95.593","SITE":"AFETR","OBJECT_TYPE":"PAYLOAD","INCLINATION":"53.0550","RCS_SIZE":"LARGE","REF_FRAME":"TEME","BSTAR":"-0.00003457800000","EPHEMERIS_TYPE":"0","COUNTRY_CODE":"US","OBJECT_ID":"2020-038AW","DECAY_DATE":null,"REV_AT_EPOCH":"12879","SEMIMAJOR_AXIS":"6925.380","TLE_LINE1":"1 45774U 20038AW  22282.63281535 -.00000796  00000-0 -34578-4 0  9994","ARG_OF_PERICENTER":"65.2930","OBJECT_NAME":"STARLINK-1485"},{"OBJECT_ID":"2020-038AX","COUNTRY_CODE":"US","REV_AT_EPOCH":"12982","DECAY_DATE":null,"TLE_LINE1":"1 45775U 20038AX  22283.03457335  .00005493  00000-0  38754-3 0  9999","OBJECT_NAME":"STARLINK-1488","SEMIMAJOR_AXIS":"6925.402","ARG_OF_PERICENTER":"71.7165","PERIOD":"95.593","SITE":"AFETR","RCS_SIZE":"LARGE","OBJECT_TYPE":"PAYLOAD","INCLINATION":"53.0576","BSTAR":"0.00038754000000","EPHEMERIS_TYPE":"0","REF_FRAME":"TEME","ELEMENT_SET_NO":"999","CLASSIFICATION_TYPE":"U","MEAN_ELEMENT_THEORY":"SGP4","MEAN_ANOMALY":"288.3985","EPOCH":"2022-10-10T00:49:47.137440","TIME_SYSTEM":"UTC","FILE":"3598903","NORAD_CAT_ID":"45775","ECCENTRICITY":"0.00014840","LAUNCH_DATE":"2020-06-13","MEAN_MOTION_DOT":"0.00005493","TLE_LINE2":"2 45775  53.0576  33.0870 0001484  71.7165 288.3985 15.06382501129827","RA_OF_ASC_NODE":"33.0870","PERIAPSIS":"546.239","GP_ID":"214606896","MEAN_MOTION":"15.06382501","MEAN_MOTION_DDOT":"0.0000000000000","CENTER_NAME":"EARTH","APOAPSIS":"548.295"},{"CENTER_NAME":"EARTH","MEAN_MOTION_DDOT":"0.0000000000000","APOAPSIS":"548.246","MEAN_MOTION":"15.06420847","GP_ID":"214567743","PERIAPSIS":"546.053","RA_OF_ASC_NODE":"35.1291","FILE":"3598177","NORAD_CAT_ID":"45776","ECCENTRICITY":"0.00015830","TIME_SYSTEM":"UTC","TLE_LINE2":"2 45776  53.0557  35.1291 0001583  47.6238 312.4885 15.06420847129903","LAUNCH_DATE":"2020-06-13","MEAN_MOTION_DOT":"-0.00005061","EPOCH":"2022-10-09T13:51:36.469152","MEAN_ANOMALY":"312.4885","MEAN_ELEMENT_THEORY":"SGP4","CLASSIFICATION_TYPE":"U","ELEMENT_SET_NO":"999","EPHEMERIS_TYPE":"0","BSTAR":"-0.00032090000000","REF_FRAME":"TEME","RCS_SIZE":"LARGE","INCLINATION":"53.0557","OBJECT_TYPE":"PAYLOAD","SITE":"AFETR","PERIOD":"95.591","TLE_LINE1":"1 45776U 20038AY  22282.57750543 -.00005061  00000-0 -32090-3 0  9995","ARG_OF_PERICENTER":"47.6238","SEMIMAJOR_AXIS":"6925.285","OBJECT_NAME":"STARLINK-1489","REV_AT_EPOCH":"12990","DECAY_DATE":null,"OBJECT_ID":"2020-038AY","COUNTRY_CODE":"US"},{"TLE_LINE1":"1 45777U 20038AZ  22282.64014272  .00004615  00000-0  32814-3 0  9992","SEMIMAJOR_AXIS":"6925.223","ARG_OF_PERICENTER":"61.2427","OBJECT_NAME":"STARLINK-1490","COUNTRY_CODE":"US","OBJECT_ID":"2020-038AZ","DECAY_DATE":null,"REV_AT_EPOCH":"12880","INCLINATION":"53.0553","OBJECT_TYPE":"PAYLOAD","RCS_SIZE":"LARGE","REF_FRAME":"TEME","EPHEMERIS_TYPE":"0","BSTAR":"0.00032814000000","PERIOD":"95.590","SITE":"AFETR","EPOCH":"2022-10-09T15:21:48.331008","TLE_LINE2":"2 45777  53.0553  34.8471 0001547  61.2427 298.8717 15.06440910128800","LAUNCH_DATE":"2020-06-13","MEAN_MOTION_DOT":"0.00004615","FILE":"3598879","NORAD_CAT_ID":"45777","TIME_SYSTEM":"UTC","ECCENTRICITY":"0.00015470","CLASSIFICATION_TYPE":"U","ELEMENT_SET_NO":"999","MEAN_ANOMALY":"298.8717","MEAN_ELEMENT_THEORY":"SGP4","MEAN_MOTION":"15.06440910","GP_ID":"214599544","APOAPSIS":"548.160","CENTER_NAME":"EARTH","MEAN_MOTION_DDOT":"0.0000000000000","RA_OF_ASC_NODE":"34.8471","PERIAPSIS":"546.017"},{"TLE_LINE1":"1 45778U 20038BA  22282.62174304  .00001755  00000-0  13664-3 0  9998","ARG_OF_PERICENTER":"79.9657","SEMIMAJOR_AXIS":"6925.332","OBJECT_NAME":"STARLINK-1491","OBJECT_ID":"2020-038BA","COUNTRY_CODE":"US","REV_AT_EPOCH":"12878","DECAY_DATE":null,"RCS_SIZE":"LARGE","INCLINATION":"53.0567","OBJECT_TYPE":"PAYLOAD","EPHEMERIS_TYPE":"0","BSTAR":"0.00013664000000","REF_FRAME":"TEME","PERIOD":"95.592","SITE":"AFETR","EPOCH":"2022-10-09T14:55:18.598656","FILE":"3598879","ECCENTRICITY":"0.00015430","NORAD_CAT_ID":"45778","TIME_SYSTEM":"UTC","TLE_LINE2":"2 45778  53.0567  34.9196 0001543  79.9657 280.1506 15.06405482128780","LAUNCH_DATE":"2020-06-13","MEAN_MOTION_DOT":"0.00001755","CLASSIFICATION_TYPE":"U","ELEMENT_SET_NO":"999","MEAN_ANOMALY":"280.1506","MEAN_ELEMENT_THEORY":"SGP4","MEAN_MOTION":"15.06405482","GP_ID":"214600288","CENTER_NAME":"EARTH","MEAN_MOTION_DDOT":"0.0000000000000","APOAPSIS":"548.265","RA_OF_ASC_NODE":"34.9196","PERIAPSIS":"546.128"}];
